[{"OBJECT_NAME":"ICEYE-X21","OBJECT_ID":"2023-001AS","EPOCH":"2026-03-09T21:59:09.131424","MEAN_MOTION":15.76746514,"ECCENTRICITY":0.00038894,"INCLINATION":97.3381,"RA_OF_ASC_NODE":147.8147,"ARG_OF_PERICENTER":74.7456,"MEAN_ANOMALY":285.424,"EPHEMERIS_TYPE":0,"CLASSIFICATION_TYPE":"U","NORAD_CAT_ID":55049,"ELEMENT_SET_NO":999,"REV_AT_EPOCH":17785,"BSTAR":0.00056259315,"MEAN_MOTION_DOT":0.00090659,"MEAN_MOTION_DDOT":0},{"OBJECT_NAME":"STARLINK-36319","OBJECT_ID":"2026-038K","EPOCH":"2026-03-09T22:00:01.999584","MEAN_MOTION":15.87887532,"ECCENTRICITY":0.00013308,"INCLINATION":97.2718,"RA_OF_ASC_NODE":79.218,"ARG_OF_PERICENTER":89.0227,"MEAN_ANOMALY":194.4732,"EPHEMERIS_TYPE":0,"CLASSIFICATION_TYPE":"U","NORAD_CAT_ID":67970,"ELEMENT_SET_NO":999,"REV_AT_EPOCH":320,"BSTAR":-0.0064605593,"MEAN_MOTION_DOT":-0.01498725,"MEAN_MOTION_DDOT":0}]
